[
    {
        "Altitude(m)": 622200.1427713117,
        "Argument of Periapsis(deg)": 0.0,
        "Eccentricity": 0.0,
        "Inclination(deg)": 60.0,
        "Latitude(deg)": -52.16263640167599,
        "Longitude(deg)": -122.63932659001841,
        "Mean Anomaly(deg)": 294.5455,
        "RAAN(deg)": 25.0,
        "Satellite Name": "Test1 128",
        "Satellite Number": 128,
        "Semi-Major Axis(m)": 6980739.136638005,
        "Time(s)": 0
    },
    {
        "Altitude(m)": 622058.3109300546,
        "Argument of Periapsis(deg)": 0.00010418945913296404,
        "Eccentricity": 0.0,
        "Inclination(deg)": 60.0,
        "Latitude(deg)": -51.799386881139704,
        "Longitude(deg)": -121.87126600763185,
        "Mean Anomaly(deg)": 295.1656061454619,
        "RAAN(deg)": 24.99957995086026,
        "Satellite Name": "Test1 128",
        "Satellite Number": 128,
        "Semi-Major Axis(m)": 6980739.136638005,
        "Time(s)": 10
    }
]